{
  "norad_id": 67655,
  "name": "STARLINK-36720",
  "history": [
    {
      "epoch": "2026-03-28T16:05:50.690976Z",
      "apogee_km": 466.8043667486363,
      "perigee_km": 464.1770980621659,
      "latitude_deg": -3.874113223293586e-05,
      "longitude_deg": 54.222159379047106,
      "height_km": 468.6651925024394,
      "semi_major_axis_km": 6843.627732405401,
      "eccentricity": 0.00019195,
      "inclination_deg": 97.2839,
      "raan_deg": 121.7712,
      "arg_perigee_deg": 92.8573,
      "mean_anomaly_deg": 267.2889,
      "mean_motion_rev_day": 15.33462626
    },
    {
      "epoch": "2026-03-29T01:29:39.204384Z",
      "apogee_km": 466.66803978717235,
      "perigee_km": 464.4041527269301,
      "latitude_deg": -2.4797878410198214e-05,
      "longitude_deg": -86.73079493366652,
      "height_km": 468.28521464369675,
      "semi_major_axis_km": 6843.673096257051,
      "eccentricity": 0.0001654,
      "inclination_deg": 97.2853,
      "raan_deg": 122.1563,
      "arg_perigee_deg": 71.4396,
      "mean_anomaly_deg": 288.7026,
      "mean_motion_rev_day": 15.33447379
    }
  ]
}